SL-3 R/B                
1 19046U 88032B   24028.55815196  .00005672  00000+0  36519-3 0  9993
2 19046  97.4373  14.4837 0034018  24.9041 335.3820 15.08261619935402
SL-16 R/B               
1 19120U 88039B   24028.07325978 -.00000066  00000+0 -87470-5 0  9992
2 19120  71.0134 259.8432 0019559  83.0910 277.2440 14.19373774848882
COSMOS 1953             
1 19210U 88050A   24028.53916107  .00005824  00000+0  32882-3 0  9996
2 19210  82.5143 204.7118 0015023 300.0418  59.9322 15.12858244920582
SL-8 R/B                
1 19257U 88053B   24028.64015764  .00000413  00000+0  14477-3 0  9990
2 19257  74.0473  92.7802 0018890 105.2950   6.8316 14.38043992865722
COSMOS 1975             
1 19573U 88093A   24028.42962182  .00006883  00000+0  39765-3 0  9990
2 19573  82.5311 162.0867 0015504 346.6602  13.4217 15.12047591902238
SL-14 R/B               
1 19574U 88093B   24028.56616618  .00000740  00000+0  85133-4 0  9993
2 19574  82.5296  45.1203 0022765  69.1800  48.7831 14.84215336886595
SL-16 R/B               
1 19650U 88102B   24028.30823943  .00000352  00000+0  20251-3 0  9990
2 19650  71.0015 334.3038 0012062 108.4745 251.7690 14.15939748817693
INTERCOSMOS 24          
1 20261U 89080A   24028.60515379  .00001043  00000+0  31223-3 0  9999
2 20261  82.6038 245.3501 1196157 279.6966  67.1307 12.57567652569791
SL-14 R/B               
1 20262U 89080C   24028.25738890  .00000333  00000+0  92605-4 0  9999
2 20262  82.5958 308.2765 1234969 146.9672 221.5132 12.49571896563766
DELTA 1 R/B             
1 20323U 89089B   24028.43740787  .00000951  00000+0  25061-3 0  9991
2 20323  97.1006 345.1208 0071650  36.7046 323.9027 14.49242216783967
ARIANE 40 R/B           
1 20443U 90005H   24028.20831526  .00000486  00000+0  17219-3 0  9990
2 20443  98.4126  96.6624 0010324   8.0312 352.1039 14.38769670782081
DELTA 2 R/B(1)          
1 20453U 90008B   24028.27703785  .00012856  00000+0  53369-3 0  9996
2 20453  35.6226 330.8466 0221852 252.2352 105.4044 15.03452905808267
COSMOS 2058             
1 20465U 90010A   24028.55628910  .00004303  00000+0  32409-3 0  9999
2 20465  82.4855  80.7314 0015495  66.8734 293.4122 15.02176695826104
SL-14 R/B               
1 20466U 90010B   24028.19041882  .00000666  00000+0  80339-4 0  9991
2 20466  82.5019 271.2434 0019424 324.2903  35.7011 14.82219412814140
SL-14 R/B               
1 20511U 90018B   24028.62444540  .00000637  00000+0  79284-4 0  9991
2 20511  82.5198 223.1206 0018004 105.2238 255.0968 14.80843176808412
HST                     
1 20580U 90037B   24028.56815271  .00004991  00000+0  24525-3 0  9998
2 20580  28.4666 205.7537 0002422 318.2020  41.8386 15.15715550655667
SL-16 R/B               
1 20625U 90046B   24028.61128587 -.00000040  00000+0  38845-5 0  9995
2 20625  71.0002 117.0562 0013147  26.5646 333.6147 14.14805085739321
COSMOS 2084             
1 20663U 90055A   24028.50654511  .00003154  00000+0  24833-3 0  9994
2 20663  62.7912  70.7395 0124536 106.8713 254.6083 14.97108578820495
SL-6 R/B(2)             
1 20666U 90055D   24028.31969040  .00002819  00000+0  23504-3 0  9993
2 20666  62.7861 345.0346 0104643 128.9586 232.0893 14.96924490822438
SL-8 R/B                
1 20775U 90078B   24028.57864085  .00011859  00000+0  48939-3 0  9993
2 20775  82.9164 206.6414 0491422  24.3109 338.0437 14.55196079695844
SL-8 R/B                
1 21088U 91006B   24028.55461617  .00000188  00000+0  17360-3 0  9992
2 21088  82.9419  23.6374 0023401  37.9716  82.1576 13.77312303657919
OKEAN-3                 
1 21397U 91039A   24028.39521651  .00004673  00000+0  40233-3 0  9996
2 21397  82.5219 359.8189 0018457  66.9019 293.4147 14.97026990749322
COSMOS 2151             
1 21422U 91042A   24028.58872375  .00002352  00000+0  21233-3 0  9993
2 21422  82.4990 104.5521 0014736 134.4413 225.8017 14.95012719747770
SL-14 R/B               
1 21423U 91042B   24028.59428075  .00000653  00000+0  82105-4 0  9997
2 21423  82.4914 222.6285 0015995 252.1112 107.8358 14.80566058738926
ERS-1                   
1 21574U 91050A   24028.56330418  .00000511  00000+0  18173-3 0  9999
2 21574  98.7672  17.1777 0032130 330.1875  29.7480 14.38368869704834
ARIANE 40 R/B           
1 21610U 91050F   24028.13345974  .00000563  00000+0  18597-3 0  9993
2 21610  98.3098  94.0133 0002188 238.6563 121.4413 14.41668312707771
INTERCOSMOS 25          
1 21819U 91086A   24028.48612305  .00002061  00000+0  41331-3 0  9993
2 21819  82.6011  54.9263 1502811 334.7581  18.6768 12.08164393403403
SL-8 R/B                
1 21876U 92008B   24028.37064392  .00000119  00000+0  10641-3 0  9998
2 21876  82.9281 121.3221 0035929 127.7262 298.9513 13.75790167603353
SL-8 R/B                
1 21938U 92020B   24028.48147428  .00000033  00000+0  18799-4 0  9993
2 21938  82.9315   6.4911 0027878 291.5757 189.0520 13.75388475595119
COSMOS 2219             
1 22219U 92076A   24028.62345591  .00000423  00000+0  24796-3 0  9990
2 22219  71.0593 189.6483 0019900 295.6557  64.2510 14.13820340609380
SL-16 R/B               
1 22220U 92076B   24028.42882957  .00000022  00000+0  34876-4 0  9998
2 22220  71.0014  12.7397 0013539 201.2996 325.6914 14.16622462612599
COSMOS 2221             
1 22236U 92080A   24028.22420252  .00002604  00000+0  26117-3 0  9990
2 22236  82.5076 294.9993 0014033 256.0425 103.9234 14.90918510665620
SL-16 R/B               
1 22285U 92093B   24028.60324646  .00000379  00000+0  21950-3 0  9997
2 22285  71.0211 182.7209 0003290  11.5178 348.6020 14.15221724604056
COSMOS 2228             
1 22286U 92094A   24028.60996734  .00002369  00000+0  23441-3 0  9990
2 22286  82.5171 252.3707 0020548  13.6253 346.5517 14.91316764660893
SL-16 R/B               
1 22566U 93016B   24028.43006379 -.00000113  00000+0 -33726-4 0  9999
2 22566  71.0073  34.8086 0008371  48.2520 311.9317 14.15099277593052
COSMOS 2242             
1 22626U 93024A   24028.21223609  .00002427  00000+0  24213-3 0  9996
2 22626  82.5208 281.5005 0018707  17.2404 342.9447 14.91038934665201
SL-16 R/B               
1 22803U 93059B   24028.60182560 -.00000116  00000+0 -33609-4 0  9999
2 22803  70.9891 196.9209 0019180 300.9354  58.9884 14.16989925570299
ARIANE 40 R/B           
1 22830U 93061H   24028.21148994  .00000367  00000+0  15311-3 0  9997
2 22830  98.5896  97.4107 0011555  47.6924 312.5236 14.31976604583907
COSMOS 2278             
1 23087U 94023A   24028.34497577  .00000459  00000+0  26578-3 0  9998
2 23087  71.0557 348.5043 0007288 137.9116 222.2568 14.14042987535759
SL-16 R/B               
1 23088U 94023B   24028.06606146  .00000116  00000+0  85061-4 0  9995
2 23088  70.9989 251.1399 0002962 346.2799  13.8243 14.14816849536948
SL-16 R/B               
1 23343U 94074B   24028.59064955  .00000774  00000+0  11459-3 0  9998
2 23343  97.8094  76.0562 0006233 196.2551 285.5107 14.77822684573296
SL-16 R/B               
1 23405U 94077B   24028.55919249 -.00000013  00000+0  17770-4 0  9991
2 23405  70.9831 174.5587 0005047 264.4643  95.5904 14.15361623507114
ERS-2                   
1 23560U 95021A   24028.55742494  .00347870  00000+0  14258-2 0  9999
2 23560  98.5165  41.1729 0004750 119.9961 240.1777 15.85142887544200
ARIANE 40+ R/B          
1 23561U 95021B   24028.15856705  .00000490  00000+0  17407-3 0  9991
2 23561  98.5464  95.3639 0005907 292.9714 120.9324 14.38685800508260
SL-16 R/B               
1 23705U 95058B   24028.31734003  .00000235  00000+0  14490-3 0  9991
2 23705  71.0233 359.4980 0014025 222.3867 137.6173 14.15280557458705
SL-16 R/B               
1 24298U 96051B   24028.36886122 -.00000148  00000+0 -53563-4 0  9998
2 24298  70.8180   6.0981 0016795 201.2816 158.7608 14.12505563412737
ORBVIEW 2 (SEASTAR)     
1 24883U 97037A   24028.38458523  .00000598  00000+0  22910-3 0  9993
2 24883  98.7512 166.3191 0002623 150.7764 209.3568 14.34340205397850
SL-16 R/B               
1 25400U 98043G   24028.41071750  .00000149  00000+0  81342-4 0  9991
2 25400  98.7315 329.9181 0010969  93.3511 266.8923 14.25693293329077
SL-16 R/B               
1 25407U 98045B   24028.34800212 -.00000164  00000+0 -59134-4 0  9998
2 25407  71.0122   3.4249 0005600 135.7766 224.3806 14.15966373317901
ISS (ZARYA)             
1 25544U 98067A   24028.61199675  .00028051  00000+0  50965-3 0  9993
2 25544  51.6419 291.9295 0002619 167.6304 263.3097 15.49325648436752
CZ-4B R/B               
1 25732U 99025C   24028.63973812  .00000116  00000+0  77564-4 0  9999
2 25732  98.7736  75.6136 0037903  39.9250  72.3239 14.17911203278887
OKEAN-O                 
1 25860U 99039A   24028.56195343  .00001185  00000+0  17133-3 0  9995
2 25860  98.0583  81.0546 0000975  63.1554 296.9756 14.78060492320386
SL-16 R/B               
1 25861U 99039B   24028.59825131  .00000946  00000+0  13282-3 0  9999
2 25861  98.1102  73.3998 0014266 229.8369 130.1593 14.79777832322747
DELTA 2 R/B             
1 25876U 99041E   24028.47434218  .00003613  00000+0  63738-3 0  9992
2 25876  51.7664 132.1897 0519841 239.2444 115.6316 14.07445193254233
HELIOS 1B               
1 25977U 99064A   24028.60412584  .00001387  00000+0  17379-3 0  9992
2 25977  98.2649 255.4180 0002350  65.8884 294.2574 14.83950554570766
TERRA                   
1 25994U 99068A   24028.57570590  .00000795  00000+0  17665-3 0  9993
2 25994  98.0679  96.1012 0003105  87.1283  49.3362 14.59561038282536
SL-16 R/B               
1 26070U 00006B   24028.09350087  .00000322  00000+0  18850-3 0  9990
2 26070  71.0018 279.9843 0018845 275.1970  84.7002 14.15599251239358
TITAN 4B R/B            
1 26474U 00047B   24028.43560286  .00003555  00000+0  28240-3 0  9990
2 26474  67.9932  35.1071 0050402 189.5940 170.4248 15.00699287276834
ENVISAT                 
1 27386U 02009A   24028.53245899  .00000247  00000+0  94480-4 0  9999
2 27386  98.2637 354.6662 0001141  92.8063  20.6147 14.38490494148289
